{
  "type": "FeatureCollection",
  "features": [
    {
      "type": "Feature",
      "properties": {
        "norad_id": 66993,
        "name": "2025-292A",
        "group": "last-30-days",
        "lat": -59.41102951973175,
        "lon": -132.95701325441908,
        "alt_km": 551.8075427858248,
        "timestamp": "2025-12-13T15:35:10.879339+00:00",
        "meta_object_name": "2025-292A",
        "meta_object_id": "2025-292A",
        "meta_epoch": "2025-12-12T22:33:30.596544",
        "meta_mean_motion": 15.0449122,
        "meta_eccentricity": 0.00139263,
        "meta_inclination": 97.6534,
        "meta_ra_of_asc_node": 59.4889,
        "meta_arg_of_pericenter": 272.3922,
        "meta_mean_anomaly": 87.571,
        "meta_ephemeris_type": 0,
        "meta_classification_type": "U",
        "meta_norad_cat_id": 66993,
        "meta_element_set_no": 999,
        "meta_rev_at_epoch": 42,
        "meta_bstar": 0.00049309476,
        "meta_mean_motion_dot": 6.857e-05,
        "meta_mean_motion_ddot": 0,
        "tle_line1": "1 66993U 25292A   25346.93993746  .00006857  00000+0  49309-3 0  9996",
        "tle_line2": "2 66993  97.6534  59.4889 0013926 272.3922  87.5710 15.04491220   422"
      },
      "geometry": {
        "type": "Point",
        "coordinates": [
          -132.95701325441908,
          -59.41102951973175
        ]
      }
    },
    {
      "type": "Feature",
      "properties": {
        "norad_id": 66994,
        "name": "2025-292B",
        "group": "last-30-days",
        "lat": -59.937076203179615,
        "lon": -133.24323509328548,
        "alt_km": 551.775742979079,
        "timestamp": "2025-12-13T15:35:10.879349+00:00",
        "meta_object_name": "2025-292B",
        "meta_object_id": "2025-292B",
        "meta_epoch": "2025-12-12T17:46:05.180736",
        "meta_mean_motion": 15.0453506,
        "meta_eccentricity": 0.00137597,
        "meta_inclination": 97.6543,
        "meta_ra_of_asc_node": 59.2916,
        "meta_arg_of_pericenter": 273.7223,
        "meta_mean_anomaly": 86.243,
        "meta_ephemeris_type": 0,
        "meta_classification_type": "U",
        "meta_norad_cat_id": 66994,
        "meta_element_set_no": 999,
        "meta_rev_at_epoch": 39,
        "meta_bstar": 0.00058817545,
        "meta_mean_motion_dot": 8.202e-05,
        "meta_mean_motion_ddot": 0,
        "tle_line1": "1 66994U 25292B   25346.74033774  .00008202  00000+0  58818-3 0  9993",
        "tle_line2": "2 66994  97.6543  59.2916 0013759 273.7223  86.2430 15.04535060   397"
      },
      "geometry": {
        "type": "Point",
        "coordinates": [
          -133.24323509328548,
          -59.937076203179615
        ]
      }
    },
    {
      "type": "Feature",
      "properties": {
        "norad_id": 66995,
        "name": "2025-292C",
        "group": "last-30-days",
        "lat": -59.86119351542922,
        "lon": -133.20047996288136,
        "alt_km": 551.5457356086172,
        "timestamp": "2025-12-13T15:35:10.879358+00:00",
        "meta_object_name": "2025-292C",
        "meta_object_id": "2025-292C",
        "meta_epoch": "2025-12-11T21:01:03.496224",
        "meta_mean_motion": 15.04519537,
        "meta_eccentricity": 0.0014385,
        "meta_inclination": 97.653,
        "meta_ra_of_asc_node": 58.4343,
        "meta_arg_of_pericenter": 277.3974,
        "meta_mean_anomaly": 82.5617,
        "meta_ephemeris_type": 0,
        "meta_classification_type": "U",
        "meta_norad_cat_id": 66995,
        "meta_element_set_no": 999,
        "meta_rev_at_epoch": 26,
        "meta_bstar": 0.00011824,
        "meta_mean_motion_dot": 1.597e-05,
        "meta_mean_motion_ddot": 0,
        "tle_line1": "1 66995U 25292C   25345.87573491  .00001597  00000+0  11824-3 0  9998",
        "tle_line2": "2 66995  97.6530  58.4343 0014385 277.3974  82.5617 15.04519537   261"
      },
      "geometry": {
        "type": "Point",
        "coordinates": [
          -133.20047996288136,
          -59.86119351542922
        ]
      }
    },
    {
      "type": "Feature",
      "properties": {
        "norad_id": 66996,
        "name": "2025-292D",
        "group": "last-30-days",
        "lat": -60.59236016656255,
        "lon": -133.60808449832794,
        "alt_km": 552.0851488932058,
        "timestamp": "2025-12-13T15:35:10.879373+00:00",
        "meta_object_name": "2025-292D",
        "meta_object_id": "2025-292D",
        "meta_epoch": "2025-12-11T21:00:57.670272",
        "meta_mean_motion": 15.04579315,
        "meta_eccentricity": 0.0013407,
        "meta_inclination": 97.652,
        "meta_ra_of_asc_node": 58.4351,
        "meta_arg_of_pericenter": 279.6596,
        "meta_mean_anomaly": 80.3115,
        "meta_ephemeris_type": 0,
        "meta_classification_type": "U",
        "meta_norad_cat_id": 66996,
        "meta_element_set_no": 999,
        "meta_rev_at_epoch": 26,
        "meta_bstar": 0.00011811,
        "meta_mean_motion_dot": 1.598e-05,
        "meta_mean_motion_ddot": 0,
        "tle_line1": "1 66996U 25292D   25345.87566748  .00001598  00000+0  11811-3 0  9993",
        "tle_line2": "2 66996  97.6520  58.4351 0013407 279.6596  80.3115 15.04579315   268"
      },
      "geometry": {
        "type": "Point",
        "coordinates": [
          -133.60808449832794,
          -60.59236016656255
        ]
      }
    },
    {
      "type": "Feature",
      "properties": {
        "norad_id": 66997,
        "name": "2025-292E",
        "group": "last-30-days",
        "lat": -61.49964411169245,
        "lon": -134.14857581399514,
        "alt_km": 551.6811134520467,
        "timestamp": "2025-12-13T15:35:10.879384+00:00",
        "meta_object_name": "2025-292E",
        "meta_object_id": "2025-292E",
        "meta_epoch": "2025-12-11T21:00:50.206176",
        "meta_mean_motion": 15.04655353,
        "meta_eccentricity": 0.0013781,
        "meta_inclination": 97.6541,
        "meta_ra_of_asc_node": 58.4346,
        "meta_arg_of_pericenter": 280.9887,
        "meta_mean_anomaly": 78.9789,
        "meta_ephemeris_type": 0,
        "meta_classification_type": "U",
        "meta_norad_cat_id": 66997,
        "meta_element_set_no": 999,
        "meta_rev_at_epoch": 25,
        "meta_bstar": 0.00011812,
        "meta_mean_motion_dot": 1.601e-05,
        "meta_mean_motion_ddot": 0,
        "tle_line1": "1 66997U 25292E   25345.87558109  .00001601  00000+0  11812-3 0  9992",
        "tle_line2": "2 66997  97.6541  58.4346 0013781 280.9887  78.9789 15.04655353   255"
      },
      "geometry": {
        "type": "Point",
        "coordinates": [
          -134.14857581399514,
          -61.49964411169245
        ]
      }
    },
    {
      "type": "Feature",
      "properties": {
        "norad_id": 66998,
        "name": "2025-292F",
        "group": "last-30-days",
        "lat": -63.24799547333528,
        "lon": -135.28494342368856,
        "alt_km": 550.6020892549859,
        "timestamp": "2025-12-13T15:35:10.879393+00:00",
        "meta_object_name": "2025-292F",
        "meta_object_id": "2025-292F",
        "meta_epoch": "2025-12-11T21:00:35.828352",
        "meta_mean_motion": 15.04802497,
        "meta_eccentricity": 0.0014607,
        "meta_inclination": 97.6565,
        "meta_ra_of_asc_node": 58.4348,
        "meta_arg_of_pericenter": 280.9703,
        "meta_mean_anomaly": 78.988,
        "meta_ephemeris_type": 0,
        "meta_classification_type": "U",
        "meta_norad_cat_id": 66998,
        "meta_element_set_no": 999,
        "meta_rev_at_epoch": 26,
        "meta_bstar": 0.00011825,
        "meta_mean_motion_dot": 1.61e-05,
        "meta_mean_motion_ddot": 0,
        "tle_line1": "1 66998U 25292F   25345.87541468  .00001610  00000+0  11825-3 0  9997",
        "tle_line2": "2 66998  97.6565  58.4348 0014607 280.9703  78.9880 15.04802497   265"
      },
      "geometry": {
        "type": "Point",
        "coordinates": [
          -135.28494342368856,
          -63.24799547333528
        ]
      }
    },
    {
      "type": "Feature",
      "properties": {
        "norad_id": 66999,
        "name": "2025-292G",
        "group": "last-30-days",
        "lat": -63.99971547978259,
        "lon": -135.81690609993834,
        "alt_km": 550.6066423122065,
        "timestamp": "2025-12-13T15:35:10.879403+00:00",
        "meta_object_name": "2025-292G",
        "meta_object_id": "2025-292G",
        "meta_epoch": "2025-12-11T21:00:29.832192",
        "meta_mean_motion": 15.04867239,
        "meta_eccentricity": 0.0014449,
        "meta_inclination": 97.6571,
        "meta_ra_of_asc_node": 58.4362,
        "meta_arg_of_pericenter": 282.848,
        "meta_mean_anomaly": 77.1132,
        "meta_ephemeris_type": 0,
        "meta_classification_type": "U",
        "meta_norad_cat_id": 66999,
        "meta_element_set_no": 999,
        "meta_rev_at_epoch": 26,
        "meta_bstar": 0.00011819,
        "meta_mean_motion_dot": 1.612e-05,
        "meta_mean_motion_ddot": 0,
        "tle_line1": "1 66999U 25292G   25345.87534528  .00001612  00000+0  11819-3 0  9992",
        "tle_line2": "2 66999  97.6571  58.4362 0014449 282.8480  77.1132 15.04867239   262"
      },
      "geometry": {
        "type": "Point",
        "coordinates": [
          -135.81690609993834,
          -63.99971547978259
        ]
      }
    }
  ]
}